#dP2024  2  8 12  0  0.00000000      96 __u+U IGS20 EXT  IAC
## 2300 388800.00000000   900.00000000 60348 0.5000000000000
+  119   C06C07C08C09C10C11C12C13C14C16C19C20C21C22C23C24C25
+        C26C27C28C29C30C32C33C34C35C36C37C38C39C40C41C42C43
+        C44C45C46E02E03E04E05E07E08E09E10E11E12E13E14E15E18
+        E19E21E24E25E26E27E30E31E33E34E36G01G02G03G04G05G06
+        G07G08G09G10G11G12G13G14G15G16G17G18G19G20G21G22G23
+        G24G25G26G27G28G29G30G31G32J02J04R01R02R03R04R05R07
+        R08R09R11R12R13R14R15R16R17R18R19R20R21R22R24R25R26
++        10  8  8 10  9 10  9 10 10 10  7  7  8  9  9  9  9
++         8 10  9 10  9  8  9  8  8  8  8 10  9  8  8  9  8
++         9  8  7  7  7  7  8  8  7  7  6  8  8  7  7  7  6
++         8  7  7  7  7  8  7  8  8  7  7  7  7  7  6  7  7
++         7  6  7  7  7  8  7  8  9  8  7  8  7  7  7  8  8
++         7  7  7  7  7  7  7  7  8 10  9  8  7  9  8  7  8
++         7  7  8  9  7  8  7  8  8  7  9  8  8 10  8 10  9
%c M  cc GPS ccc cccc cccc cccc cccc ccccc ccccc ccccc ccccc
%c cc cc ccc ccc cccc cccc cccc cccc ccccc ccccc ccccc ccccc
%f  0.0000000  0.000000000  0.00000000000  0.000000000000000
%f  0.0000000  0.000000000  0.00000000000  0.000000000000000
%i    0    0    0    0      0      0      0      0         0
%i    0    0    0    0      0      0      0      0         0
/* IAC                                ULTRA-RAPID PREDICTION
/* S/V CLOCKS ARE ALIGNED TO GNSS TIME                      
/* G:C1WC2W R:C1PC2P E:C1XC5X C:C2IC6I J:C1CC2S             
/* PCV:IGS20_2290 OL/AL:FES2004  NONE     YN ORB:CoN CLK:CoN
*  2024 02 09  3  0  0.00000000
PC06 -16273.416161  25412.532765  29373.510085     98.292374
PC07 -10187.863448  40792.150373   4421.989821   -771.461432
PC08    915.952595  26370.902307 -32807.980230     52.293668
PC09  -5994.376101  25319.499423  33501.443347   -464.868942
PC10  -4967.487577  42130.120858  -1506.370223     92.657024
PC11 -23318.747660   1746.117098  15304.822569    401.002943
PC12  -8974.128020 -12659.115754  23235.063987    774.475562
PC13   8602.045584  30582.544547 -27390.845017    415.679532
PC14 -15528.747799  -5250.159948 -22559.443200    149.092701
PC16 -18207.458539  24888.783117  28863.254318   -328.925463
PC19  15138.788489  -5892.556989  22715.140358   -928.633921
PC20  13867.346292  13995.307412  19789.304395   -144.824644
PC21  -3991.385175 -27231.443427  -4520.573764   -962.496482
PC22   7800.527880 -23569.645911  12720.164244   -116.648296
PC23 -11286.651674  12314.699671  22348.445012   -782.524357
PC24 -23309.414976 -15019.678020  -3286.369998    867.334422
PC25 -24213.849439   -925.454007  13843.998985    321.694881
PC26  -9638.347168 -19200.360911 -17850.410803   -246.545593
PC27    219.851335  17629.450617 -21645.643582    268.554633
PC28 -16234.879089  19506.885397 -11594.731308    204.191317
PC29  24833.715234 -10094.206937  -7771.472951    239.305983
PC30  17316.045294   6154.943658 -21014.563990    -23.074903
PC32   4187.158284  27235.221836   4473.219570   -564.880618
PC33 -15123.808604   5921.331372 -22687.327334   -947.437334
PC34 -18425.585762  -4938.199710  20348.976552    365.287855
PC35  15574.609927 -20133.589093  11473.870346    437.987830
PC36  24365.935038   1892.032714 -13448.559275    -21.717008
PC37   8682.757641  19352.336945  18121.316540   -935.151296
PC38  -7548.101891  23032.812420 -34418.412696    135.661636
PC39 -24270.945624  24850.156045  23789.693805     -7.042054
PC40 -16443.094864  38276.319096   7352.273456    -55.678633
PC41  -8127.336789  23119.907779 -13300.979199   -888.447465
PC42 -13402.717161 -15550.352986 -18843.902621   -456.253493
PC43 -24846.739225   9334.311475   8567.440601     59.706246
PC44   -728.739631 -17816.621331  21461.232520    378.918361
PC45  10983.468292 -12366.594399 -22484.635304    -68.900418
PC46  23680.512368  14531.818065   2342.710358   -122.332404
PE02  -3877.310782  21631.751056  19806.823596    101.879783
PE03 -13593.253525  26149.980907   2797.599808    -92.599292
PE04  -1988.969364 -22483.761223 -19142.988579   -322.968334
PE05 -21025.531453  14514.728619 -14940.947413   4718.272046
PE07  16009.502832   6122.639148  24138.531117   -102.799028
PE08   1331.444634  22823.978347  18806.485269   -220.979656
PE09 -15828.294913  -6151.242231 -24242.297325   -329.410701
PE10 -19906.894580 -12127.119469  18242.185951   -600.522848
PE11 -27155.217610  -6830.027960   9564.646283   3256.473807
PE12 -10429.285888 -15213.836288  23146.821938   -898.357148
PE13  26850.883184   7157.810729 -10208.252213    -20.132202
PE14 -14115.584583  -8117.504441  19240.201431     34.135105
PE15   9874.677920  15231.602763 -23373.145465    -84.773987
PE18  10233.234851  18858.267466 -22645.290222    305.584427
PE19  15104.046923 -25452.386864   -632.009787   -650.844636
PE21  16548.735817  -4457.227538 -24141.783393   -578.078310
PE24 -20057.429116 -16526.126533  14171.514999   -587.984749
PE25 -16739.407673   4011.921472  24077.498268      0.631950
PE26  27595.645164  -5403.405422   9263.161488    363.396175
PE27  20146.497067  16077.747595 -14546.284732   -270.078389
PE30  11586.694847  26970.109328   3716.515146   -891.903656
PE31 -11827.442947 -26911.016331  -3521.428818    -15.586031
PE33  13235.184458 -14098.888069  22417.978576      7.299303
PE34 -12618.037855  14286.267882 -22645.352081    -93.606616
PE36 -27850.009792   4953.281924  -8686.461298   -183.362402
PG01  15608.177023  12334.348052 -18107.554259    168.827803
PG02   8051.847210  13760.074969 -20795.185663   -488.320860
PG03  11708.464170  23824.294637  -2206.091802    181.196436
PG04   3319.059058  18692.956570  18531.469725    287.076152
PG05  -3632.044716 -22656.372252  13124.122448   -161.103414
PG06  23653.770851  -6374.083733  10465.195233    414.288837
PG07  24675.560744   6463.359448   8714.897769    -57.495609
PG08  -2732.251936  23185.590980 -12344.453016   -166.127591
PG09  13517.410481   7034.022590  21673.786675     85.977817
PG10 -16119.240755    -65.601635 -20970.009124    -72.576378
PG11  14411.872529 -12141.236164  18722.632270   -569.450621
PG12  -9697.734453 -24650.583860  -2685.686102   -476.149853
PG13  12645.702403 -22480.015696  -6029.132902    623.804741
PG14  17847.436644   3911.689985 -19317.316374    320.840650
PG15   -314.091734 -23641.807750 -12379.100456    125.780410
PG16  -4044.011468  19569.798581  16928.668807   -366.695037
PG17  18711.150143  -6536.343513 -17329.911117    717.566871
PG18 -25135.685583  -5441.482031   7024.301712   -551.440366
PG19  19685.330694 -13763.165933 -11114.911091    438.083976
PG20   6729.656231 -15164.872390  20834.468356    388.203887
PG21   2705.207167  14779.657871 -21442.699988    135.594010
PG22  14410.623144  -4412.302421 -21428.418535     34.286770
PG23 -18748.085932 -12262.680593 -14393.111663    152.267864
PG24  -5882.626231 -15331.088733 -21335.553051   -428.618246
PG25 -16983.535275 -19321.185937   6813.754481    488.009995
PG26 -11342.826388  11205.377941  21063.099116    192.162573
PG27 -12449.961112  23170.278949  -1255.425677     -2.374060
PG28 -24799.215012   5835.327456   7476.042964   -124.895633
PG29 -11618.247872  -9400.288546  21904.542801   -607.319451
PG30  26596.695821  -1168.687356  -2007.957900   -434.986246
PG31 -19313.228714  10179.275771  15189.809886   -227.699736
PG32 -18540.589889  10289.269066 -15663.306451   -610.578229
PJ02 -26821.907492  23026.267378  28099.362862     -1.819932
PJ04 -17964.513876  33327.576200 -13355.737873     50.956679
PR01   5146.966749 -24539.112895   4670.967964     76.697336
PR02  -2487.445116 -22051.152126 -12593.488626    -22.461250
PR03  -9651.050336  -7018.049658 -22502.497413     94.189343
PR04 -11103.549096  11417.899022 -19886.336156    222.635007
PR05  -6818.444721  23682.042432  -6516.756980    126.620893
PR07   9924.675118   5955.600951  22769.644333     75.399184
PR08  11135.054181 -11724.186578  19804.804287    -74.352920
PR09  14696.600940  17727.383174  11072.635899    168.977313
PR11  16873.116663   1543.437657 -19068.783338     34.927307
PR12   1162.943289 -12582.174211 -22144.385562     36.538156
PR13 -12759.469594 -17721.153789 -13211.007583    -44.176347
PR14 -21291.628873 -12696.366158   5979.876989     26.039015
PR15 -16032.738560   -399.194563  19845.301122     82.356182
PR16  -1277.453150  12320.805446  22304.364446     23.128612
PR17 -20036.273574     73.138818  15818.501610     59.673480
PR18 -23907.524302   8794.848204    482.409772    126.440204
PR19 -17309.827697  12514.611140 -13937.098907   -265.116864
PR20   3457.026686   9775.329540 -23293.705533   -107.994300
PR21  20159.778281   -132.619587 -15612.034507    -75.505153
PR22  24002.576463  -8638.008228    681.283528    107.190751
PR24  -4596.595628  -9866.155035  23089.169782    -43.167341
PR25  20139.655881    888.238154 -15612.257980     93.055535
PR26  11128.006612 -10836.597173  20250.187030   -199.300667
EOF
